[{"OBJECT_NAME":"FENGYUN 1C DEB","OBJECT_ID":"1999-025BAG","EPOCH":"2026-03-12T05:31:35.180256","MEAN_MOTION":14.14959609,"ECCENTRICITY":0.01361935,"INCLINATION":98.6854,"RA_OF_ASC_NODE":72.0768,"ARG_OF_PERICENTER":210.0458,"MEAN_ANOMALY":212.2154,"EPHEMERIS_TYPE":0,"CLASSIFICATION_TYPE":"U","NORAD_CAT_ID":30942,"ELEMENT_SET_NO":999,"REV_AT_EPOCH":97910,"BSTAR":0.00022617821,"MEAN_MOTION_DOT":4.35e-6,"MEAN_MOTION_DDOT":0},{"OBJECT_NAME":"FENGYUN 1C DEB","OBJECT_ID":"1999-025BAH","EPOCH":"2026-03-14T07:21:33.962976","MEAN_MOTION":14.04587244,"ECCENTRICITY":0.0050293,"INCLINATION":98.7952,"RA_OF_ASC_NODE":89.3789,"ARG_OF_PERICENTER":167.6332,"MEAN_ANOMALY":192.6083,"EPHEMERIS_TYPE":0,"CLASSIFICATION_TYPE":"U","NORAD_CAT_ID":30943,"ELEMENT_SET_NO":999,"REV_AT_EPOCH":97027,"BSTAR":0.00024904037,"MEAN_MOTION_DOT":3.6e-6,"MEAN_MOTION_DDOT":0},{"OBJECT_NAME":"FENGYUN 1C DEB","OBJECT_ID":"1999-025BAJ","EPOCH":"2026-03-14T15:41:38.172192","MEAN_MOTION":14.52602241,"ECCENTRICITY":0.01481059,"INCLINATION":98.8333,"RA_OF_ASC_NODE":139.2942,"ARG_OF_PERICENTER":182.1511,"MEAN_ANOMALY":331.06,"EPHEMERIS_TYPE":0,"CLASSIFICATION_TYPE":"U","NORAD_CAT_ID":30944,"ELEMENT_SET_NO":999,"REV_AT_EPOCH":386,"BSTAR":0.00018749826,"MEAN_MOTION_DOT":8.27e-6,"MEAN_MOTION_DDOT":0},{"OBJECT_NAME":"FENGYUN 1C DEB","OBJECT_ID":"1999-025BAK","EPOCH":"2026-03-13T01:01:37.661664","MEAN_MOTION":14.30602061,"ECCENTRICITY":0.00312336,"INCLINATION":99.3885,"RA_OF_ASC_NODE":92.7791,"ARG_OF_PERICENTER":137.8579,"MEAN_ANOMALY":296.165,"EPHEMERIS_TYPE":0,"CLASSIFICATION_TYPE":"U","NORAD_CAT_ID":30945,"ELEMENT_SET_NO":999,"REV_AT_EPOCH":97728,"BSTAR":0.0016402755,"MEAN_MOTION_DOT":4.257e-5,"MEAN_MOTION_DDOT":0},{"OBJECT_NAME":"FENGYUN 1C DEB","OBJECT_ID":"1999-025BAL","EPOCH":"2026-03-14T14:21:06.532992","MEAN_MOTION":14.48661568,"ECCENTRICITY":0.00874286,"INCLINATION":99.0423,"RA_OF_ASC_NODE":200.2066,"ARG_OF_PERICENTER":278.6811,"MEAN_ANOMALY":98.6451,"EPHEMERIS_TYPE":0,"CLASSIFICATION_TYPE":"U","NORAD_CAT_ID":30946,"ELEMENT_SET_NO":999,"REV_AT_EPOCH":99681,"BSTAR":0.00067720102,"MEAN_MOTION_DOT":2.621e-5,"MEAN_MOTION_DDOT":0},{"OBJECT_NAME":"FENGYUN 1C DEB","OBJECT_ID":"1999-025BAM","EPOCH":"2026-03-12T05:54:41.043168","MEAN_MOTION":14.38221878,"ECCENTRICITY":0.0096351,"INCLINATION":98.8016,"RA_OF_ASC_NODE":328.133,"ARG_OF_PERICENTER":343.5281,"MEAN_ANOMALY":16.2781,"EPHEMERIS_TYPE":0,"CLASSIFICATION_TYPE":"U","NORAD_CAT_ID":30947,"ELEMENT_SET_NO":999,"REV_AT_EPOCH":99779,"BSTAR":0.00033987,"MEAN_MOTION_DOT":1.041e-5,"MEAN_MOTION_DDOT":0},{"OBJECT_NAME":"FENGYUN 1C DEB","OBJECT_ID":"1999-025BAP","EPOCH":"2026-03-13T22:17:00.531168","MEAN_MOTION":14.14145475,"ECCENTRICITY":0.01178892,"INCLINATION":98.7053,"RA_OF_ASC_NODE":69.9031,"ARG_OF_PERICENTER":49.5217,"MEAN_ANOMALY":342.2192,"EPHEMERIS_TYPE":0,"CLASSIFICATION_TYPE":"U","NORAD_CAT_ID":30949,"ELEMENT_SET_NO":999,"REV_AT_EPOCH":97805,"BSTAR":0.00029010941,"MEAN_MOTION_DOT":5.48e-6,"MEAN_MOTION_DDOT":0},{"OBJECT_NAME":"FENGYUN 1C DEB","OBJECT_ID":"1999-025BAU","EPOCH":"2026-03-14T13:18:59.226624","MEAN_MOTION":14.153374,"ECCENTRICITY":0.0125729,"INCLINATION":98.7085,"RA_OF_ASC_NODE":176.545,"ARG_OF_PERICENTER":284.5245,"MEAN_ANOMALY":85.6849,"EPHEMERIS_TYPE":0,"CLASSIFICATION_TYPE":"U","NORAD_CAT_ID":30954,"ELEMENT_SET_NO":999,"REV_AT_EPOCH":97686,"BSTAR":0.00093992019,"MEAN_MOTION_DOT":1.932e-5,"MEAN_MOTION_DDOT":0},{"OBJECT_NAME":"FENGYUN 1C DEB","OBJECT_ID":"1999-025BAW","EPOCH":"2026-03-14T07:57:00.229824","MEAN_MOTION":14.14577412,"ECCENTRICITY":0.00509375,"INCLINATION":98.7483,"RA_OF_ASC_NODE":110.5409,"ARG_OF_PERICENTER":82.5687,"MEAN_ANOMALY":339.1491,"EPHEMERIS_TYPE":0,"CLASSIFICATION_TYPE":"U","NORAD_CAT_ID":30956,"ELEMENT_SET_NO":999,"REV_AT_EPOCH":97602,"BSTAR":0.00081915974,"MEAN_MOTION_DOT":1.55e-5,"MEAN_MOTION_DDOT":0},{"OBJECT_NAME":"FENGYUN 1C DEB","OBJECT_ID":"1999-025BAZ","EPOCH":"2026-02-28T02:44:34.725120","MEAN_MOTION":14.38997235,"ECCENTRICITY":0.00518676,"INCLINATION":99.6935,"RA_OF_ASC_NODE":22.4487,"ARG_OF_PERICENTER":347.2744,"MEAN_ANOMALY":12.7127,"EPHEMERIS_TYPE":0,"CLASSIFICATION_TYPE":"U","NORAD_CAT_ID":30959,"ELEMENT_SET_NO":999,"REV_AT_EPOCH":61498,"BSTAR":0.0027857452,"MEAN_MOTION_DOT":8.69e-5,"MEAN_MOTION_DDOT":0},{"OBJECT_NAME":"FENGYUN 1C DEB","OBJECT_ID":"1999-025BBA","EPOCH":"2026-03-13T03:24:37.945440","MEAN_MOTION":14.68500939,"ECCENTRICITY":0.01905959,"INCLINATION":99.0008,"RA_OF_ASC_NODE":202.0918,"ARG_OF_PERICENTER":242.5502,"MEAN_ANOMALY":115.6206,"EPHEMERIS_TYPE":0,"CLASSIFICATION_TYPE":"U","NORAD_CAT_ID":30960,"ELEMENT_SET_NO":999,"REV_AT_EPOCH":1,"BSTAR":0.0014862701,"MEAN_MOTION_DOT":0.0001131,"MEAN_MOTION_DDOT":0},{"OBJECT_NAME":"FENGYUN 1C DEB","OBJECT_ID":"1999-025BBE","EPOCH":"2026-03-10T09:14:33.707904","MEAN_MOTION":14.0091389,"ECCENTRICITY":0.01386508,"INCLINATION":98.6726,"RA_OF_ASC_NODE":37.2907,"ARG_OF_PERICENTER":352.753,"MEAN_ANOMALY":161.0819,"EPHEMERIS_TYPE":0,"CLASSIFICATION_TYPE":"U","NORAD_CAT_ID":30964,"ELEMENT_SET_NO":999,"REV_AT_EPOCH":96622,"BSTAR":0.0021091403,"MEAN_MOTION_DOT":3.388e-5,"MEAN_MOTION_DDOT":0},{"OBJECT_NAME":"FENGYUN 1C DEB","OBJECT_ID":"1999-025BBH","EPOCH":"2026-03-14T03:22:59.112480","MEAN_MOTION":14.58009477,"ECCENTRICITY":0.00939797,"INCLINATION":98.7738,"RA_OF_ASC_NODE":29.2126,"ARG_OF_PERICENTER":321.2626,"MEAN_ANOMALY":38.1857,"EPHEMERIS_TYPE":0,"CLASSIFICATION_TYPE":"U","NORAD_CAT_ID":30967,"ELEMENT_SET_NO":999,"REV_AT_EPOCH":337,"BSTAR":0.0010627896,"MEAN_MOTION_DOT":5.136e-5,"MEAN_MOTION_DDOT":0},{"OBJECT_NAME":"FENGYUN 1C DEB","OBJECT_ID":"1999-025BBM","EPOCH":"2026-03-14T15:39:17.777376","MEAN_MOTION":14.72521595,"ECCENTRICITY":0.01606712,"INCLINATION":99.1939,"RA_OF_ASC_NODE":134.5604,"ARG_OF_PERICENTER":267.4232,"MEAN_ANOMALY":247.6008,"EPHEMERIS_TYPE":0,"CLASSIFICATION_TYPE":"U","NORAD_CAT_ID":30971,"ELEMENT_SET_NO":999,"REV_AT_EPOCH":1068,"BSTAR":0.00053013083,"MEAN_MOTION_DOT":4.056e-5,"MEAN_MOTION_DDOT":0},{"OBJECT_NAME":"FENGYUN 1C DEB","OBJECT_ID":"1999-025BBV","EPOCH":"2026-03-13T22:54:30.078720","MEAN_MOTION":14.80772535,"ECCENTRICITY":0.01850248,"INCLINATION":97.8233,"RA_OF_ASC_NODE":334.1284,"ARG_OF_PERICENTER":305.1173,"MEAN_ANOMALY":112.8847,"EPHEMERIS_TYPE":0,"CLASSIFICATION_TYPE":"U","NORAD_CAT_ID":30979,"ELEMENT_SET_NO":999,"REV_AT_EPOCH":471,"BSTAR":0.0011349679,"MEAN_MOTION_DOT":0.00011698,"MEAN_MOTION_DDOT":0},{"OBJECT_NAME":"FENGYUN 1C DEB","OBJECT_ID":"1999-025BBY","EPOCH":"2026-03-13T10:50:16.561248","MEAN_MOTION":14.51217779,"ECCENTRICITY":0.01814136,"INCLINATION":98.2268,"RA_OF_ASC_NODE":65.6924,"ARG_OF_PERICENTER":33.6777,"MEAN_ANOMALY":119.344,"EPHEMERIS_TYPE":0,"CLASSIFICATION_TYPE":"U","NORAD_CAT_ID":30982,"ELEMENT_SET_NO":999,"REV_AT_EPOCH":72369,"BSTAR":0.00044421372,"MEAN_MOTION_DOT":2.134e-5,"MEAN_MOTION_DDOT":0}]
