FENGYUN 1C DEB          
1 30942U 99025BAG 26071.23026829  .00000435  00000+0  22618-3 0  9994
2 30942  98.6854  72.0768 0136193 210.0458 212.2154 14.14959609979104
FENGYUN 1C DEB          
1 30943U 99025BAH 26073.30664309  .00000360  00000+0  24904-3 0  9993
2 30943  98.7952  89.3789 0050293 167.6332 192.6083 14.04587244970275
FENGYUN 1C DEB          
1 30944U 99025BAJ 26073.65391403  .00000827  00000+0  18750-3 0  9994
2 30944  98.8333 139.2942 0148105 182.1511 331.0600 14.52602241  3861
FENGYUN 1C DEB          
1 30945U 99025BAK 26072.04279701  .00004257  00000+0  16403-2 0  9996
2 30945  99.3885  92.7791 0031233 137.8579 296.1650 14.30602061977287
FENGYUN 1C DEB          
1 30946U 99025BAL 26073.59799228  .00002621  00000+0  67720-3 0  9991
2 30946  99.0423 200.2066 0087428 278.6811  98.6451 14.48661568996814
FENGYUN 1C DEB          
1 30947U 99025BAM 26071.24630837  .00001041  00000+0  33987-3 0  9995
2 30947  98.8016 328.1330 0096351 343.5281  16.2781 14.38221878997797
FENGYUN 1C DEB          
1 30949U 99025BAP 26072.92847837  .00000548  00000+0  29011-3 0  9997
2 30949  98.7053  69.9031 0117889  49.5217 342.2192 14.14145475978057
FENGYUN 1C DEB          
1 30954U 99025BAU 26073.55485216  .00001932  00000+0  93992-3 0  9999
2 30954  98.7085 176.5450 0125729 284.5245  85.6849 14.15337400976868
FENGYUN 1C DEB          
1 30956U 99025BAW 26073.33125266  .00001550  00000+0  81916-3 0  9992
2 30956  98.7483 110.5409 0050937  82.5687 339.1491 14.14577412976024
FENGYUN 1C DEB          
1 30959U 99025BAZ 26059.11429080  .00008690  00000+0  27857-2 0  9991
2 30959  99.6935  22.4487 0051867 347.2744  12.7127 14.38997235614983
FENGYUN 1C DEB          
1 30960U 99025BBA 26072.14210585  .00011310  00000+0  14863-2 0  9995
2 30960  99.0008 202.0918 0190595 242.5502 115.6206 14.68500939    14
FENGYUN 1C DEB          
1 30964U 99025BBE 26069.38511236  .00003388  00000+0  21091-2 0  9995
2 30964  98.6726  37.2907 0138650 352.7530 161.0819 14.00913890966224
FENGYUN 1C DEB          
1 30967U 99025BBH 26073.14096195  .00005136  00000+0  10628-2 0  9996
2 30967  98.7738  29.2126 0093979 321.2626  38.1857 14.58009477  3370
FENGYUN 1C DEB          
1 30971U 99025BBM 26073.65228909  .00004056  00000+0  53013-3 0  9993
2 30971  99.1939 134.5604 0160671 267.4232 247.6008 14.72521595 10685
FENGYUN 1C DEB          
1 30979U 99025BBV 26072.95451480  .00011698  00000+0  11350-2 0  9992
2 30979  97.8233 334.1284 0185024 305.1173 112.8847 14.80772535  4712
FENGYUN 1C DEB          
1 30982U 99025BBY 26072.45158057  .00002134  00000+0  44421-3 0  9996
2 30982  98.2268  65.6924 0181413  33.6777 119.3440 14.51217779723695
